STARLINK-37078          
1 68174U 26050H   26084.80463962  .00249687  00000+0  12258-2 0  9992
2 68174  53.1596 201.0180 0001166  66.5973 293.5172 15.80988422  3020
STARLINK-36886          
1 68175U 26050J   26084.80388204  .00270363  00000+0  13218-2 0  9990
2 68175  53.1592 201.0124 0000724 168.5586 191.5454 15.81021721  3028
STARLINK-36905          
1 68176U 26050K   26084.80314035  .00293412  00000+0  14307-2 0  9992
2 68176  53.1594 201.0073 0000801  59.2567 300.8534 15.81016441  3022
STARLINK-36668          
1 68177U 26050L   26084.80238850  .00260942  00000+0  12794-2 0  9993
2 68177  53.1590 201.0017 0000755  86.4425 273.6684 15.80985491  3022
STARLINK-36677          
1 68178U 26050M   26084.80163683  .00259206  00000+0  12701-2 0  9994
2 68178  53.1589 200.9959 0000706 135.5646 224.5433 15.81002897  3029
STARLINK-37052          
1 68179U 26050N   26084.80088754  .00246608  00000+0  12106-2 0  9991
2 68179  53.1593 200.9925 0000892  55.1369 304.9738 15.80999070  3021
STARLINK-37035          
1 68180U 26050P   26084.80013838  .00256623  00000+0  12581-2 0  9999
2 68180  53.1596 200.9873 0000706  83.3832 276.7271 15.80999083  3022
STARLINK-37032          
1 68181U 26050Q   26084.79938839  .00282825  00000+0  13821-2 0  9996
2 68181  53.1592 200.9819 0001012  99.8868 260.2269 15.80997708  3028
STARLINK-37082          
1 68182U 26050R   26084.79863576  .00244856  00000+0  12027-2 0  9991
2 68182  53.1594 200.9764 0000406 160.1419 199.9620 15.80990131  3022
STARLINK-37102          
1 68183U 26050S   26084.79788870  .00244008  00000+0  11991-2 0  9993
2 68183  53.1598 200.9716 0000983  97.2477 262.8657 15.80983736  3021
STARLINK-36964          
1 68184U 26050T   26084.79713574  .00221872  00000+0  10933-2 0  9992
2 68184  53.1592 200.9667 0000610 129.3185 230.7892 15.80986368  3020
STARLINK-37061          
1 68185U 26050U   26084.79638675  .00232919  00000+0  11458-2 0  9998
2 68185  53.1594 200.9625 0000517  72.8574 287.2505 15.80990884  3023
