CCSDS_OMM_VERS = 2.0
CREATION_DATE  = 
ORIGINATOR     = 

OBJECT_NAME    = STARLINK-37078
OBJECT_ID      = 2026-050H
CENTER_NAME    = EARTH
REF_FRAME      = TEME
TIME_SYSTEM    = UTC
MEAN_ELEMENT_THEORY = SGP/SGP4

EPOCH          = 2026-03-25T19:18:40.863168
MEAN_MOTION    = 15.80988422
ECCENTRICITY   = .0001166
INCLINATION    = 53.1596
RA_OF_ASC_NODE = 201.0180
ARG_OF_PERICENTER = 66.5973
MEAN_ANOMALY   = 293.5172

EPHEMERIS_TYPE = 0
CLASSIFICATION_TYPE = U
NORAD_CAT_ID   = 68174
ELEMENT_SET_NO = 999
REV_AT_EPOCH   = 302
BSTAR          = .12258E-2
MEAN_MOTION_DOT = .249687E-2
MEAN_MOTION_DDOT = 0

CCSDS_OMM_VERS = 2.0
CREATION_DATE  = 
ORIGINATOR     = 

OBJECT_NAME    = STARLINK-36886
OBJECT_ID      = 2026-050J
CENTER_NAME    = EARTH
REF_FRAME      = TEME
TIME_SYSTEM    = UTC
MEAN_ELEMENT_THEORY = SGP/SGP4

EPOCH          = 2026-03-25T19:17:35.408256
MEAN_MOTION    = 15.81021721
ECCENTRICITY   = .0000724
INCLINATION    = 53.1592
RA_OF_ASC_NODE = 201.0124
ARG_OF_PERICENTER = 168.5586
MEAN_ANOMALY   = 191.5454

EPHEMERIS_TYPE = 0
CLASSIFICATION_TYPE = U
NORAD_CAT_ID   = 68175
ELEMENT_SET_NO = 999
REV_AT_EPOCH   = 302
BSTAR          = .13218E-2
MEAN_MOTION_DOT = .270363E-2
MEAN_MOTION_DDOT = 0

CCSDS_OMM_VERS = 2.0
CREATION_DATE  = 
ORIGINATOR     = 

OBJECT_NAME    = STARLINK-36905
OBJECT_ID      = 2026-050K
CENTER_NAME    = EARTH
REF_FRAME      = TEME
TIME_SYSTEM    = UTC
MEAN_ELEMENT_THEORY = SGP/SGP4

EPOCH          = 2026-03-25T19:16:31.326240
MEAN_MOTION    = 15.81016441
ECCENTRICITY   = .0000801
INCLINATION    = 53.1594
RA_OF_ASC_NODE = 201.0073
ARG_OF_PERICENTER = 59.2567
MEAN_ANOMALY   = 300.8534

EPHEMERIS_TYPE = 0
CLASSIFICATION_TYPE = U
NORAD_CAT_ID   = 68176
ELEMENT_SET_NO = 999
REV_AT_EPOCH   = 302
BSTAR          = .14307E-2
MEAN_MOTION_DOT = .293412E-2
MEAN_MOTION_DDOT = 0

CCSDS_OMM_VERS = 2.0
CREATION_DATE  = 
ORIGINATOR     = 

OBJECT_NAME    = STARLINK-36668
OBJECT_ID      = 2026-050L
CENTER_NAME    = EARTH
REF_FRAME      = TEME
TIME_SYSTEM    = UTC
MEAN_ELEMENT_THEORY = SGP/SGP4

EPOCH          = 2026-03-25T19:15:26.366400
MEAN_MOTION    = 15.80985491
ECCENTRICITY   = .0000755
INCLINATION    = 53.1590
RA_OF_ASC_NODE = 201.0017
ARG_OF_PERICENTER = 86.4425
MEAN_ANOMALY   = 273.6684

EPHEMERIS_TYPE = 0
CLASSIFICATION_TYPE = U
NORAD_CAT_ID   = 68177
ELEMENT_SET_NO = 999
REV_AT_EPOCH   = 302
BSTAR          = .12794E-2
MEAN_MOTION_DOT = .260942E-2
MEAN_MOTION_DDOT = 0

CCSDS_OMM_VERS = 2.0
CREATION_DATE  = 
ORIGINATOR     = 

OBJECT_NAME    = STARLINK-36677
OBJECT_ID      = 2026-050M
CENTER_NAME    = EARTH
REF_FRAME      = TEME
TIME_SYSTEM    = UTC
MEAN_ELEMENT_THEORY = SGP/SGP4

EPOCH          = 2026-03-25T19:14:21.422112
MEAN_MOTION    = 15.81002897
ECCENTRICITY   = .0000706
INCLINATION    = 53.1589
RA_OF_ASC_NODE = 200.9959
ARG_OF_PERICENTER = 135.5646
MEAN_ANOMALY   = 224.5433

EPHEMERIS_TYPE = 0
CLASSIFICATION_TYPE = U
NORAD_CAT_ID   = 68178
ELEMENT_SET_NO = 999
REV_AT_EPOCH   = 302
BSTAR          = .12701E-2
MEAN_MOTION_DOT = .259206E-2
MEAN_MOTION_DDOT = 0

CCSDS_OMM_VERS = 2.0
CREATION_DATE  = 
ORIGINATOR     = 

OBJECT_NAME    = STARLINK-37052
OBJECT_ID      = 2026-050N
CENTER_NAME    = EARTH
REF_FRAME      = TEME
TIME_SYSTEM    = UTC
MEAN_ELEMENT_THEORY = SGP/SGP4

EPOCH          = 2026-03-25T19:13:16.683456
MEAN_MOTION    = 15.80999070
ECCENTRICITY   = .0000892
INCLINATION    = 53.1593
RA_OF_ASC_NODE = 200.9925
ARG_OF_PERICENTER = 55.1369
MEAN_ANOMALY   = 304.9738

EPHEMERIS_TYPE = 0
CLASSIFICATION_TYPE = U
NORAD_CAT_ID   = 68179
ELEMENT_SET_NO = 999
REV_AT_EPOCH   = 302
BSTAR          = .12106E-2
MEAN_MOTION_DOT = .246608E-2
MEAN_MOTION_DDOT = 0

CCSDS_OMM_VERS = 2.0
CREATION_DATE  = 
ORIGINATOR     = 

OBJECT_NAME    = STARLINK-37035
OBJECT_ID      = 2026-050P
CENTER_NAME    = EARTH
REF_FRAME      = TEME
TIME_SYSTEM    = UTC
MEAN_ELEMENT_THEORY = SGP/SGP4

EPOCH          = 2026-03-25T19:12:11.956032
MEAN_MOTION    = 15.80999083
ECCENTRICITY   = .0000706
INCLINATION    = 53.1596
RA_OF_ASC_NODE = 200.9873
ARG_OF_PERICENTER = 83.3832
MEAN_ANOMALY   = 276.7271

EPHEMERIS_TYPE = 0
CLASSIFICATION_TYPE = U
NORAD_CAT_ID   = 68180
ELEMENT_SET_NO = 999
REV_AT_EPOCH   = 302
BSTAR          = .12581E-2
MEAN_MOTION_DOT = .256623E-2
MEAN_MOTION_DDOT = 0

CCSDS_OMM_VERS = 2.0
CREATION_DATE  = 
ORIGINATOR     = 

OBJECT_NAME    = STARLINK-37032
OBJECT_ID      = 2026-050Q
CENTER_NAME    = EARTH
REF_FRAME      = TEME
TIME_SYSTEM    = UTC
MEAN_ELEMENT_THEORY = SGP/SGP4

EPOCH          = 2026-03-25T19:11:07.156896
MEAN_MOTION    = 15.80997708
ECCENTRICITY   = .0001012
INCLINATION    = 53.1592
RA_OF_ASC_NODE = 200.9819
ARG_OF_PERICENTER = 99.8868
MEAN_ANOMALY   = 260.2269

EPHEMERIS_TYPE = 0
CLASSIFICATION_TYPE = U
NORAD_CAT_ID   = 68181
ELEMENT_SET_NO = 999
REV_AT_EPOCH   = 302
BSTAR          = .13821E-2
MEAN_MOTION_DOT = .282825E-2
MEAN_MOTION_DDOT = 0

CCSDS_OMM_VERS = 2.0
CREATION_DATE  = 
ORIGINATOR     = 

OBJECT_NAME    = STARLINK-37082
OBJECT_ID      = 2026-050R
CENTER_NAME    = EARTH
REF_FRAME      = TEME
TIME_SYSTEM    = UTC
MEAN_ELEMENT_THEORY = SGP/SGP4

EPOCH          = 2026-03-25T19:10:02.129664
MEAN_MOTION    = 15.80990131
ECCENTRICITY   = .0000406
INCLINATION    = 53.1594
RA_OF_ASC_NODE = 200.9764
ARG_OF_PERICENTER = 160.1419
MEAN_ANOMALY   = 199.9620

EPHEMERIS_TYPE = 0
CLASSIFICATION_TYPE = U
NORAD_CAT_ID   = 68182
ELEMENT_SET_NO = 999
REV_AT_EPOCH   = 302
BSTAR          = .12027E-2
MEAN_MOTION_DOT = .244856E-2
MEAN_MOTION_DDOT = 0

CCSDS_OMM_VERS = 2.0
CREATION_DATE  = 
ORIGINATOR     = 

OBJECT_NAME    = STARLINK-37102
OBJECT_ID      = 2026-050S
CENTER_NAME    = EARTH
REF_FRAME      = TEME
TIME_SYSTEM    = UTC
MEAN_ELEMENT_THEORY = SGP/SGP4

EPOCH          = 2026-03-25T19:08:57.583680
MEAN_MOTION    = 15.80983736
ECCENTRICITY   = .0000983
INCLINATION    = 53.1598
RA_OF_ASC_NODE = 200.9716
ARG_OF_PERICENTER = 97.2477
MEAN_ANOMALY   = 262.8657

EPHEMERIS_TYPE = 0
CLASSIFICATION_TYPE = U
NORAD_CAT_ID   = 68183
ELEMENT_SET_NO = 999
REV_AT_EPOCH   = 302
BSTAR          = .11991E-2
MEAN_MOTION_DOT = .244008E-2
MEAN_MOTION_DDOT = 0

CCSDS_OMM_VERS = 2.0
CREATION_DATE  = 
ORIGINATOR     = 

OBJECT_NAME    = STARLINK-36964
OBJECT_ID      = 2026-050T
CENTER_NAME    = EARTH
REF_FRAME      = TEME
TIME_SYSTEM    = UTC
MEAN_ELEMENT_THEORY = SGP/SGP4

EPOCH          = 2026-03-25T19:07:52.527936
MEAN_MOTION    = 15.80986368
ECCENTRICITY   = .000061
INCLINATION    = 53.1592
RA_OF_ASC_NODE = 200.9667
ARG_OF_PERICENTER = 129.3185
MEAN_ANOMALY   = 230.7892

EPHEMERIS_TYPE = 0
CLASSIFICATION_TYPE = U
NORAD_CAT_ID   = 68184
ELEMENT_SET_NO = 999
REV_AT_EPOCH   = 302
BSTAR          = .10933E-2
MEAN_MOTION_DOT = .221872E-2
MEAN_MOTION_DDOT = 0

CCSDS_OMM_VERS = 2.0
CREATION_DATE  = 
ORIGINATOR     = 

OBJECT_NAME    = STARLINK-37061
OBJECT_ID      = 2026-050U
CENTER_NAME    = EARTH
REF_FRAME      = TEME
TIME_SYSTEM    = UTC
MEAN_ELEMENT_THEORY = SGP/SGP4

EPOCH          = 2026-03-25T19:06:47.815200
MEAN_MOTION    = 15.80990884
ECCENTRICITY   = .0000517
INCLINATION    = 53.1594
RA_OF_ASC_NODE = 200.9625
ARG_OF_PERICENTER = 72.8574
MEAN_ANOMALY   = 287.2505

EPHEMERIS_TYPE = 0
CLASSIFICATION_TYPE = U
NORAD_CAT_ID   = 68185
ELEMENT_SET_NO = 999
REV_AT_EPOCH   = 302
BSTAR          = .11458E-2
MEAN_MOTION_DOT = .232919E-2
MEAN_MOTION_DDOT = 0

